{
  "type": "FeatureCollection",
  "features": [
    {
      "type": "Feature",
      "properties": {
        "norad_id": 33805,
        "name": "COSMOS 2251 DEB",
        "group": "cosmos-2251-debris",
        "lat": -38.82903751597227,
        "lon": 122.62003782256274,
        "alt_km": 717.3828352081273,
        "timestamp": "2025-12-24T07:45:06.591333+00:00",
        "meta_object_name": "COSMOS 2251 DEB",
        "meta_object_id": "1993-036AW",
        "meta_epoch": "2025-12-23T22:30:52.098336",
        "meta_mean_motion": 14.57879311,
        "meta_eccentricity": 0.00599197,
        "meta_inclination": 74.0313,
        "meta_ra_of_asc_node": 290.0275,
        "meta_arg_of_pericenter": 115.735,
        "meta_mean_anomaly": 245.0016,
        "meta_ephemeris_type": 0,
        "meta_classification_type": "U",
        "meta_norad_cat_id": 33805,
        "meta_element_set_no": 999,
        "meta_rev_at_epoch": 89390,
        "meta_bstar": 0.00022456684,
        "meta_mean_motion_dot": 1.024e-05,
        "meta_mean_motion_ddot": 0,
        "tle_line1": "1 33805U 93036AW  25357.93810299  .00001024  00000+0  22457-3 0  9992",
        "tle_line2": "2 33805  74.0313 290.0275 0059919 115.7350 245.0016 14.57879311893902"
      },
      "geometry": {
        "type": "Point",
        "coordinates": [
          122.62003782256274,
          -38.82903751597227
        ]
      }
    },
    {
      "type": "Feature",
      "properties": {
        "norad_id": 33811,
        "name": "COSMOS 2251 DEB",
        "group": "cosmos-2251-debris",
        "lat": -73.82478658996315,
        "lon": -172.4990748901804,
        "alt_km": 555.585356162931,
        "timestamp": "2025-12-24T07:45:06.591344+00:00",
        "meta_object_name": "COSMOS 2251 DEB",
        "meta_object_id": "1993-036BC",
        "meta_epoch": "2025-12-23T22:54:40.284288",
        "meta_mean_motion": 15.05584568,
        "meta_eccentricity": 0.00309563,
        "meta_inclination": 73.8383,
        "meta_ra_of_asc_node": 279.3915,
        "meta_arg_of_pericenter": 357.9408,
        "meta_mean_anomaly": 76.3842,
        "meta_ephemeris_type": 0,
        "meta_classification_type": "U",
        "meta_norad_cat_id": 33811,
        "meta_element_set_no": 999,
        "meta_rev_at_epoch": 90187,
        "meta_bstar": 0.0010629623,
        "meta_mean_motion_dot": 0.0001548,
        "meta_mean_motion_ddot": 0,
        "tle_line1": "1 33811U 93036BC  25357.95463292  .00015480  00000+0  10630-2 0  9998",
        "tle_line2": "2 33811  73.8383 279.3915 0030956 357.9408  76.3842 15.05584568901877"
      },
      "geometry": {
        "type": "Point",
        "coordinates": [
          -172.4990748901804,
          -73.82478658996315
        ]
      }
    },
    {
      "type": "Feature",
      "properties": {
        "norad_id": 33815,
        "name": "COSMOS 2251 DEB",
        "group": "cosmos-2251-debris",
        "lat": -25.09957304871523,
        "lon": -20.05255240219701,
        "alt_km": 508.5238653881024,
        "timestamp": "2025-12-24T07:45:06.591354+00:00",
        "meta_object_name": "COSMOS 2251 DEB",
        "meta_object_id": "1993-036BG",
        "meta_epoch": "2025-12-23T12:09:09.431424",
        "meta_mean_motion": 15.20902163,
        "meta_eccentricity": 0.00029334,
        "meta_inclination": 73.9518,
        "meta_ra_of_asc_node": 153.9206,
        "meta_arg_of_pericenter": 325.2276,
        "meta_mean_anomaly": 91.1426,
        "meta_ephemeris_type": 0,
        "meta_classification_type": "U",
        "meta_norad_cat_id": 33815,
        "meta_element_set_no": 999,
        "meta_rev_at_epoch": 88534,
        "meta_bstar": 0.0074914907,
        "meta_mean_motion_dot": 0.00169618,
        "meta_mean_motion_ddot": 0,
        "tle_line1": "1 33815U 93036BG  25357.50635916  .00169618  00000+0  74915-2 0  9996",
        "tle_line2": "2 33815  73.9518 153.9206 0002933 325.2276  91.1426 15.20902163885345"
      },
      "geometry": {
        "type": "Point",
        "coordinates": [
          -20.05255240219701,
          -25.09957304871523
        ]
      }
    },
    {
      "type": "Feature",
      "properties": {
        "norad_id": 33816,
        "name": "COSMOS 2251 DEB",
        "group": "cosmos-2251-debris",
        "lat": 73.76525087880411,
        "lon": 168.5877726562393,
        "alt_km": 758.2644314999652,
        "timestamp": "2025-12-24T07:45:06.591364+00:00",
        "meta_object_name": "COSMOS 2251 DEB",
        "meta_object_id": "1993-036BH",
        "meta_epoch": "2025-12-23T15:42:08.286048",
        "meta_mean_motion": 13.81795004,
        "meta_eccentricity": 0.02641804,
        "meta_inclination": 73.8952,
        "meta_ra_of_asc_node": 86.8973,
        "meta_arg_of_pericenter": 97.6669,
        "meta_mean_anomaly": 265.4539,
        "meta_ephemeris_type": 0,
        "meta_classification_type": "U",
        "meta_norad_cat_id": 33816,
        "meta_element_set_no": 999,
        "meta_rev_at_epoch": 84824,
        "meta_bstar": 0.00033497003,
        "meta_mean_motion_dot": 4.46e-06,
        "meta_mean_motion_ddot": 0,
        "tle_line1": "1 33816U 93036BH  25357.65426257  .00000446  00000+0  33497-3 0  9993",
        "tle_line2": "2 33816  73.8952  86.8973 0264180  97.6669 265.4539 13.81795004848240"
      },
      "geometry": {
        "type": "Point",
        "coordinates": [
          168.5877726562393,
          73.76525087880411
        ]
      }
    },
    {
      "type": "Feature",
      "properties": {
        "norad_id": 33818,
        "name": "COSMOS 2251 DEB",
        "group": "cosmos-2251-debris",
        "lat": 0.8116635085257768,
        "lon": -37.946268232433226,
        "alt_km": 518.2937301483071,
        "timestamp": "2025-12-24T07:45:06.591375+00:00",
        "meta_object_name": "COSMOS 2251 DEB",
        "meta_object_id": "1993-036BK",
        "meta_epoch": "2025-12-23T20:31:12.070848",
        "meta_mean_motion": 15.13379701,
        "meta_eccentricity": 0.00244034,
        "meta_inclination": 74.0791,
        "meta_ra_of_asc_node": 143.2535,
        "meta_arg_of_pericenter": 126.7749,
        "meta_mean_anomaly": 23.4057,
        "meta_ephemeris_type": 0,
        "meta_classification_type": "U",
        "meta_norad_cat_id": 33818,
        "meta_element_set_no": 999,
        "meta_rev_at_epoch": 90030,
        "meta_bstar": 0.0025355878,
        "meta_mean_motion_dot": 0.0004583,
        "meta_mean_motion_ddot": 0,
        "tle_line1": "1 33818U 93036BK  25357.85500082  .00045830  00000+0  25356-2 0  9996",
        "tle_line2": "2 33818  74.0791 143.2535 0024403 126.7749  23.4057 15.13379701900305"
      },
      "geometry": {
        "type": "Point",
        "coordinates": [
          -37.946268232433226,
          0.8116635085257768
        ]
      }
    },
    {
      "type": "Feature",
      "properties": {
        "norad_id": 33819,
        "name": "COSMOS 2251 DEB",
        "group": "cosmos-2251-debris",
        "lat": -1.3403384233189155,
        "lon": 9.273514640393913,
        "alt_km": 831.6602513803882,
        "timestamp": "2025-12-24T07:45:06.591385+00:00",
        "meta_object_name": "COSMOS 2251 DEB",
        "meta_object_id": "1993-036BL",
        "meta_epoch": "2025-12-23T23:04:37.989984",
        "meta_mean_motion": 14.32257827,
        "meta_eccentricity": 0.00894981,
        "meta_inclination": 74.1773,
        "meta_ra_of_asc_node": 189.547,
        "meta_arg_of_pericenter": 47.4847,
        "meta_mean_anomaly": 70.1711,
        "meta_ephemeris_type": 0,
        "meta_classification_type": "U",
        "meta_norad_cat_id": 33819,
        "meta_element_set_no": 999,
        "meta_rev_at_epoch": 87656,
        "meta_bstar": 0.000501555,
        "meta_mean_motion_dot": 1.39e-05,
        "meta_mean_motion_ddot": 0,
        "tle_line1": "1 33819U 93036BL  25357.96155081  .00001390  00000+0  50155-3 0  9993",
        "tle_line2": "2 33819  74.1773 189.5470 0089498  47.4847  70.1711 14.32257827876561"
      },
      "geometry": {
        "type": "Point",
        "coordinates": [
          9.273514640393913,
          -1.3403384233189155
        ]
      }
    },
    {
      "type": "Feature",
      "properties": {
        "norad_id": 33821,
        "name": "COSMOS 2251 DEB",
        "group": "cosmos-2251-debris",
        "lat": 28.4298823315908,
        "lon": -70.58156075613844,
        "alt_km": 452.13668607353156,
        "timestamp": "2025-12-24T07:45:06.591395+00:00",
        "meta_object_name": "COSMOS 2251 DEB",
        "meta_object_id": "1993-036BN",
        "meta_epoch": "2025-12-23T18:30:35.082432",
        "meta_mean_motion": 15.25976037,
        "meta_eccentricity": 0.00496405,
        "meta_inclination": 74.0304,
        "meta_ra_of_asc_node": 119.5043,
        "meta_arg_of_pericenter": 149.1645,
        "meta_mean_anomaly": 211.2489,
        "meta_ephemeris_type": 0,
        "meta_classification_type": "U",
        "meta_norad_cat_id": 33821,
        "meta_element_set_no": 999,
        "meta_rev_at_epoch": 75169,
        "meta_bstar": 0.0012134997,
        "meta_mean_motion_dot": 0.00032416,
        "meta_mean_motion_ddot": 0,
        "tle_line1": "1 33821U 93036BN  25357.77123938  .00032416  00000+0  12135-2 0  9999",
        "tle_line2": "2 33821  74.0304 119.5043 0049640 149.1645 211.2489 15.25976037751693"
      },
      "geometry": {
        "type": "Point",
        "coordinates": [
          -70.58156075613844,
          28.4298823315908
        ]
      }
    }
  ]
}